IRIDIUM 26              
1 24903U 97043A   25149.94388609  .00000424  00000+0  13604-3 0  9995
2 24903  86.3941 118.2863 0002417  91.5874 268.5600 14.37130902454121
IRIDIUM 22              
1 24907U 97043E   25149.92832994  .00000373  00000+0  12191-3 0  9991
2 24907  86.3946 121.8161 0002364  87.5891 272.5576 14.35945796454159
DUMMY MASS 1            
1 24925U 97048A   25149.91106490  .00000404  00000+0  41971-4 0  9994
2 24925  86.3341 143.7792 0005771 190.2039 169.9070 14.86971844502658
DUMMY MASS 2            
1 24926U 97048B   25149.93747044  .00000388  00000+0  40451-4 0  9996
2 24926  86.3342 145.3703 0006041 205.8887 154.2036 14.86724258502198
IRIDIUM 29              
1 24944U 97051A   25149.95771316  .00000419  00000+0  13613-3 0  9995
2 24944  86.3960 151.5424 0002249  84.8216 275.3238 14.36452491450654
IRIDIUM 33              
1 24946U 97051C   25149.91955802  .00000265  00000+0  86238-4 0  9990
2 24946  86.3875 150.8169 0009499 127.8849 232.3208 14.34881873450123
IRIDIUM 28              
1 24948U 97051E   25149.94314164  .00000340  00000+0  10724-3 0  9995
2 24948  86.3963 149.0759 0002607  98.2807 261.8686 14.37373765451225
IRIDIUM 36              
1 24967U 97056C   25149.49168569  .00000426  00000+0  13550-3 0  9992
2 24967  86.3995 180.8463 0002587  90.5476 269.6018 14.37595508449537
